[{"OBJECT_NAME":"AEROCUBE 4.5A","OBJECT_ID":"2012-048K","EPOCH":"2026-03-09T23:30:53.651232","MEAN_MOTION":15.62097136,"ECCENTRICITY":0.00407508,"INCLINATION":64.6384,"RA_OF_ASC_NODE":19.0525,"ARG_OF_PERICENTER":211.9552,"MEAN_ANOMALY":147.9122,"EPHEMERIS_TYPE":0,"CLASSIFICATION_TYPE":"U","NORAD_CAT_ID":38767,"ELEMENT_SET_NO":999,"REV_AT_EPOCH":35703,"BSTAR":0.0010922172,"MEAN_MOTION_DOT":0.00101362,"MEAN_MOTION_DDOT":0},{"OBJECT_NAME":"STARLINK-36628","OBJECT_ID":"2026-018G","EPOCH":"2026-03-09T22:00:01.999584","MEAN_MOTION":15.71788373,"ECCENTRICITY":0.00016367,"INCLINATION":97.2851,"RA_OF_ASC_NODE":134.7143,"ARG_OF_PERICENTER":74.8592,"MEAN_ANOMALY":228.4539,"EPHEMERIS_TYPE":0,"CLASSIFICATION_TYPE":"U","NORAD_CAT_ID":67595,"ELEMENT_SET_NO":999,"REV_AT_EPOCH":587,"BSTAR":-0.017206569,"MEAN_MOTION_DOT":-0.01926622,"MEAN_MOTION_DDOT":0}]
